[{"OBJECT_NAME":"YAOGAN-30 02A","OBJECT_ID":"2017-058A","EPOCH":"2026-03-09T22:50:50.758368","MEAN_MOTION":15.02502907,"ECCENTRICITY":0.0002444,"INCLINATION":34.9965,"RA_OF_ASC_NODE":274.2208,"ARG_OF_PERICENTER":338.504,"MEAN_ANOMALY":21.5565,"EPHEMERIS_TYPE":0,"CLASSIFICATION_TYPE":"U","NORAD_CAT_ID":42945,"ELEMENT_SET_NO":999,"REV_AT_EPOCH":46095,"BSTAR":0.00033405903,"MEAN_MOTION_DOT":4.5e-5,"MEAN_MOTION_DDOT":0},{"OBJECT_NAME":"STARLINK-6348","OBJECT_ID":"2023-099AJ","EPOCH":"2026-03-09T11:31:28.762464","MEAN_MOTION":15.02537112,"ECCENTRICITY":0.0001371,"INCLINATION":43.003,"RA_OF_ASC_NODE":237.203,"ARG_OF_PERICENTER":262.258,"MEAN_ANOMALY":97.8107,"EPHEMERIS_TYPE":0,"CLASSIFICATION_TYPE":"U","NORAD_CAT_ID":57360,"ELEMENT_SET_NO":999,"REV_AT_EPOCH":14623,"BSTAR":2.5108671e-5,"MEAN_MOTION_DOT":1.36e-6,"MEAN_MOTION_DDOT":0}]
